zip,borough,neighborhood,,,zip,borough,neighborhood
7302,New Jersey,Jersey City,,,7302,New Jersey,Jersey City
7302,New Jersey,Jersey City,,,7304,New Jersey,Jersey City
7304,New Jersey,Jersey City,,,7305,New Jersey,Jersey City
7305,New Jersey,Jersey City,,,7306,New Jersey,Jersey City
7306,New Jersey,Jersey City,,,7307,New Jersey,Jersey City
7306,New Jersey,Jersey City,,,7310,New Jersey,Jersey City
7307,New Jersey,Jersey City,,,10001,Manhattan,Chelsea and Clinton
7310,New Jersey,Jersey City,,,10002,Manhattan,Lower East Side
10001,Manhattan,Chelsea and Clinton,,,10003,Manhattan,Lower East Side
10002,Manhattan,Lower East Side,,,10004,Manhattan,Lower Manhattan
10003,Manhattan,Lower East Side,,,10005,Manhattan,Lower Manhattan
10004,Manhattan,Lower Manhattan,,,10006,Manhattan,Lower Manhattan
10005,Manhattan,Lower Manhattan,,,10007,Manhattan,Lower Manhattan
10006,Manhattan,Lower Manhattan,,,10009,Manhattan,Lower East Side
10007,Manhattan,Lower Manhattan,,,10010,Manhattan,Gramercy Park and Murray Hill
10009,Manhattan,Lower East Side,,,10011,Manhattan,Chelsea and Clinton
10010,Manhattan,Gramercy Park and Murray Hill,,,10012,Manhattan,Greenwich Village and Soho
10011,Manhattan,Chelsea and Clinton,,,10013,Manhattan,Greenwich Village and Soho
10012,Manhattan,Greenwich Village and Soho,,,10014,Manhattan,Greenwich Village and Soho
10013,Manhattan,Greenwich Village and Soho,,,10016,Manhattan,Gramercy Park and Murray Hill
10014,Manhattan,Greenwich Village and Soho,,,10017,Manhattan,Gramercy Park and Murray Hill
10016,Manhattan,Gramercy Park and Murray Hill,,,10018,Manhattan,Chelsea and Clinton
10017,Manhattan,Gramercy Park and Murray Hill,,,10019,Manhattan,Chelsea and Clinton
10018,Manhattan,Chelsea and Clinton,,,10020,Manhattan,Chelsea and Clinton
10019,Manhattan,Chelsea and Clinton,,,10021,Manhattan,Upper East Side
10020,Manhattan,Chelsea and Clinton,,,10022,Manhattan,Gramercy Park and Murray Hill
10021,Manhattan,Upper East Side,,,10023,Manhattan,Upper West Side
10022,Manhattan,Gramercy Park and Murray Hill,,,10024,Manhattan,Upper West Side
10023,Manhattan,Upper West Side,,,10025,Manhattan,Upper West Side
10024,Manhattan,Upper West Side,,,10026,Manhattan,Central Harlem
10025,Manhattan,Upper West Side,,,10027,Manhattan,Central Harlem
10026,Manhattan,Central Harlem,,,10028,Manhattan,Upper East Side
10027,Manhattan,Central Harlem,,,10029,Manhattan,East Harlem
10028,Manhattan,Upper East Side,,,10030,Manhattan,Central Harlem
10029,Manhattan,East Harlem,,,10031,Manhattan,Inwood and Washington Heights
10030,Manhattan,Central Harlem,,,10032,Manhattan,Inwood and Washington Heights
10031,Manhattan,Inwood and Washington Heights,,,10033,Manhattan,Inwood and Washington Heights
10032,Manhattan,Inwood and Washington Heights,,,10034,Manhattan,Inwood and Washington Heights
10033,Manhattan,Inwood and Washington Heights,,,10035,Manhattan,East Harlem
10034,Manhattan,Inwood and Washington Heights,,,10036,Manhattan,Chelsea and Clinton
10035,Manhattan,East Harlem,,,10037,Manhattan,Central Harlem
10036,Manhattan,Chelsea and Clinton,,,10038,Manhattan,Lower Manhattan
10037,Manhattan,Central Harlem,,,10039,Manhattan,Central Harlem
10038,Manhattan,Lower Manhattan,,,10040,Manhattan,Inwood and Washington Heights
10039,Manhattan,Central Harlem,,,10044,Manhattan,Upper East Side
10040,Manhattan,Inwood and Washington Heights,,,10065,Manhattan,Upper East Side
10044,Manhattan,Upper East Side,,,10069,Manhattan,West Side
10065,Manhattan,Upper East Side,,,10075,Manhattan,Upper East Side
10069,Manhattan,West Side,,,10103,Manhattan,Chelsea and Clinton
10075,Manhattan,Upper East Side,,,10110,Manhattan,Chelsea and Clinton
10103,Manhattan,Chelsea and Clinton,,,10115,Manhattan,Morningside Heights
10110,Manhattan,Chelsea and Clinton,,,10128,Manhattan,Upper East Side
10115,Manhattan,Morningside Heights,,,10167,Manhattan,Gramercy Park and Murray Hill
10128,Manhattan,Upper East Side,,,10168,Manhattan,Gramercy Park and Murray Hill
10167,Manhattan,Gramercy Park and Murray Hill,,,10173,Manhattan,Gramercy Park and Murray Hill
10168,Manhattan,Gramercy Park and Murray Hill,,,10199,Manhattan,Chelsea and Clinton
10173,Manhattan,Gramercy Park and Murray Hill,,,10278,Manhattan,Lower Manhattan
10199,Manhattan,Chelsea and Clinton,,,10280,Manhattan,Lower Manhattan
10278,Manhattan,Lower Manhattan,,,10282,Manhattan,Tribeca
10280,Manhattan,Lower Manhattan,,,10301,Staten Island,Stapleton and St. George
10282,Manhattan,Tribeca,,,10302,Staten Island,Port Richmond
10301,Staten Island,Stapleton and St. George,,,10303,Staten Island,Port Richmond
10302,Staten Island,Port Richmond,,,10304,Staten Island,Stapleton and St. George
10303,Staten Island,Port Richmond,,,10305,Staten Island,Stapleton and St. George
10304,Staten Island,Stapleton and St. George,,,10306,Staten Island,South Shore
10305,Staten Island,Stapleton and St. George,,,10307,Staten Island,South Shore
10306,Staten Island,South Shore,,,10308,Staten Island,South Shore
10307,Staten Island,South Shore,,,10309,Staten Island,South Shore
10308,Staten Island,South Shore,,,10310,Staten Island,Port Richmond
10309,Staten Island,South Shore,,,10312,Staten Island,South Shore
10310,Staten Island,Port Richmond,,,10314,Staten Island,Mid-Island
10312,Staten Island,South Shore,,,10451,Bronx,High Bridge and Morrisania
10314,Staten Island,Mid-Island,,,10452,Bronx,High Bridge and Morrisania
10451,Bronx,High Bridge and Morrisania,,,10453,Bronx,Central Bronx
10452,Bronx,High Bridge and Morrisania,,,10454,Bronx,Hunts Point and Mott Haven
10453,Bronx,Central Bronx,,,10455,Bronx,Hunts Point and Mott Haven
10454,Bronx,Hunts Point and Mott Haven,,,10456,Bronx,High Bridge and Morrisania
10455,Bronx,Hunts Point and Mott Haven,,,10457,Bronx,Central Bronx
10456,Bronx,High Bridge and Morrisania,,,10458,Bronx,Bronx Park and Fordham
10457,Bronx,Central Bronx,,,10459,Bronx,Hunts Point and Mott Haven
10458,Bronx,Bronx Park and Fordham,,,10460,Bronx,Central Bronx
10459,Bronx,Hunts Point and Mott Haven,,,10461,Bronx,Southeast Bronx
10460,Bronx,Central Bronx,,,10462,Bronx,Southeast Bronx
10461,Bronx,Southeast Bronx,,,10463,Bronx,Kingsbridge and Riverdale
10462,Bronx,Southeast Bronx,,,10464,Bronx,Southeast Bronx
10463,Bronx,Kingsbridge and Riverdale,,,10465,Bronx,Southeast Bronx
10464,Bronx,Southeast Bronx,,,10466,Bronx,Northeast Bronx
10465,Bronx,Southeast Bronx,,,10467,Bronx,Bronx Park and Fordham
10466,Bronx,Northeast Bronx,,,10468,Bronx,Bronx Park and Fordham
10467,Bronx,Bronx Park and Fordham,,,10469,Bronx,Northeast Bronx
10468,Bronx,Bronx Park and Fordham,,,10470,Bronx,Northeast Bronx
10469,Bronx,Northeast Bronx,,,10471,Bronx,Kingsbridge and Riverdale
10470,Bronx,Northeast Bronx,,,10472,Bronx,Southeast Bronx
10471,Bronx,Kingsbridge and Riverdale,,,10473,Bronx,Southeast Bronx
10472,Bronx,Southeast Bronx,,,10474,Bronx,Hunts Point and Mott Haven
10473,Bronx,Southeast Bronx,,,10475,Bronx,Northeast Bronx
10474,Bronx,Hunts Point and Mott Haven,,,11004,Queens,Southeast Queens
10475,Bronx,Northeast Bronx,,,11101,Queens,Northwest Queens
11004,Queens,Southeast Queens,,,11102,Queens,Northwest Queens
11101,Queens,Northwest Queens,,,11103,Queens,Northwest Queens
11102,Queens,Northwest Queens,,,11104,Queens,Northwest Queens
11103,Queens,Northwest Queens,,,11105,Queens,Northwest Queens
11104,Queens,Northwest Queens,,,11106,Queens,Northwest Queens
11105,Queens,Northwest Queens,,,11109,Queens,Long Island City
11106,Queens,Northwest Queens,,,11201,Brooklyn,Northwest Brooklyn
11109,Queens,Long Island City,,,11203,Brooklyn,Flatbush
11201,Brooklyn,Northwest Brooklyn,,,11204,Brooklyn,Borough Park
11203,Brooklyn,Flatbush,,,11205,Brooklyn,Northwest Brooklyn
11204,Brooklyn,Borough Park,,,11206,Brooklyn,Bushwick and Williamsburg
11205,Brooklyn,Northwest Brooklyn,,,11207,Brooklyn,East New York and New Lots
11206,Brooklyn,Bushwick and Williamsburg,,,11208,Brooklyn,East New York and New Lots
11207,Brooklyn,East New York and New Lots,,,11209,Brooklyn,Southwest Brooklyn
11208,Brooklyn,East New York and New Lots,,,11210,Brooklyn,Flatbush
11209,Brooklyn,Southwest Brooklyn,,,11211,Brooklyn,Greenpoint
11210,Brooklyn,Flatbush,,,11212,Brooklyn,Central Brooklyn
11211,Brooklyn,Greenpoint,,,11213,Brooklyn,Central Brooklyn
11212,Brooklyn,Central Brooklyn,,,11214,Brooklyn,Southwest Brooklyn
11213,Brooklyn,Central Brooklyn,,,11215,Brooklyn,Northwest Brooklyn
11214,Brooklyn,Southwest Brooklyn,,,11216,Brooklyn,Central Brooklyn
11215,Brooklyn,Northwest Brooklyn,,,11217,Brooklyn,Northwest Brooklyn
11216,Brooklyn,Central Brooklyn,,,11218,Brooklyn,Borough Park
11217,Brooklyn,Northwest Brooklyn,,,11219,Brooklyn,Borough Park
11218,Brooklyn,Borough Park,,,11220,Brooklyn,Sunset Park
11219,Brooklyn,Borough Park,,,11221,Brooklyn,Bushwick and Williamsburg
11220,Brooklyn,Sunset Park,,,11222,Brooklyn,Greenpoint
11221,Brooklyn,Bushwick and Williamsburg,,,11223,Brooklyn,Southern Brooklyn
11222,Brooklyn,Greenpoint,,,11224,Brooklyn,Southern Brooklyn
11223,Brooklyn,Southern Brooklyn,,,11225,Brooklyn,Flatbush
11224,Brooklyn,Southern Brooklyn,,,11226,Brooklyn,Flatbush
11225,Brooklyn,Flatbush,,,11228,Brooklyn,Southwest Brooklyn
11226,Brooklyn,Flatbush,,,11229,Brooklyn,Southern Brooklyn
11228,Brooklyn,Southwest Brooklyn,,,11230,Brooklyn,Borough Park
11229,Brooklyn,Southern Brooklyn,,,11231,Brooklyn,Northwest Brooklyn
11230,Brooklyn,Borough Park,,,11232,Brooklyn,Sunset Park
11231,Brooklyn,Northwest Brooklyn,,,11233,Brooklyn,Central Brooklyn
11232,Brooklyn,Sunset Park,,,11234,Brooklyn,Canarsie and Flatlands
11233,Brooklyn,Central Brooklyn,,,11235,Brooklyn,Southern Brooklyn
11234,Brooklyn,Canarsie and Flatlands,,,11236,Brooklyn,Canarsie and Flatlands
11235,Brooklyn,Southern Brooklyn,,,11237,Brooklyn,Bushwick and Williamsburg
11236,Brooklyn,Canarsie and Flatlands,,,11238,Brooklyn,Central Brooklyn
11237,Brooklyn,Bushwick and Williamsburg,,,11239,Brooklyn,Canarsie and Flatlands
11238,Brooklyn,Central Brooklyn,,,11354,Queens,North Queens
11239,Brooklyn,Canarsie and Flatlands,,,11355,Queens,North Queens
11354,Queens,North Queens,,,11356,Queens,North Queens
11355,Queens,North Queens,,,11357,Queens,North Queens
11356,Queens,North Queens,,,11358,Queens,North Queens
11357,Queens,North Queens,,,11360,Queens,North Queens
11358,Queens,North Queens,,,11361,Queens,Northeast Queens
11360,Queens,North Queens,,,11362,Queens,Northeast Queens
11361,Queens,Northeast Queens,,,11363,Queens,Northeast Queens
11362,Queens,Northeast Queens,,,11364,Queens,Northeast Queens
11363,Queens,Northeast Queens,,,11365,Queens,Central Queens
11364,Queens,Northeast Queens,,,11366,Queens,Central Queens
11365,Queens,Central Queens,,,11367,Queens,Central Queens
11366,Queens,Central Queens,,,11368,Queens,West Queens
11367,Queens,Central Queens,,,11369,Queens,West Queens
11368,Queens,West Queens,,,11370,Queens,West Queens
11369,Queens,West Queens,,,11372,Queens,West Queens
11370,Queens,West Queens,,,11373,Queens,West Queens
11372,Queens,West Queens,,,11374,Queens,West Central Queens
11373,Queens,West Queens,,,11375,Queens,West Central Queens
11374,Queens,West Central Queens,,,11377,Queens,West Queens
11375,Queens,West Central Queens,,,11378,Queens,West Queens
11377,Queens,West Queens,,,11379,Queens,West Central Queens
11378,Queens,West Queens,,,11385,Queens,West Central Queens
11379,Queens,West Central Queens,,,11411,Queens,Southeast Queens
11385,Queens,West Central Queens,,,11412,Queens,Jamaica
11411,Queens,Southeast Queens,,,11413,Queens,Southeast Queens
11412,Queens,Jamaica,,,11414,Queens,Southwest Queens
11413,Queens,Southeast Queens,,,11415,Queens,Southwest Queens
11414,Queens,Southwest Queens,,,11416,Queens,Southwest Queens
11415,Queens,Southwest Queens,,,11417,Queens,Southwest Queens
11416,Queens,Southwest Queens,,,11418,Queens,Southwest Queens
11417,Queens,Southwest Queens,,,11419,Queens,Southwest Queens
11418,Queens,Southwest Queens,,,11420,Queens,Southwest Queens
11419,Queens,Southwest Queens,,,11421,Queens,Southwest Queens
11420,Queens,Southwest Queens,,,11422,Queens,Southeast Queens
11421,Queens,Southwest Queens,,,11423,Queens,Jamaica
11422,Queens,Southeast Queens,,,11426,Queens,Southeast Queens
11423,Queens,Jamaica,,,11427,Queens,Southeast Queens
11426,Queens,Southeast Queens,,,11428,Queens,Southeast Queens
11427,Queens,Southeast Queens,,,11429,Queens,Southeast Queens
11428,Queens,Southeast Queens,,,11432,Queens,Jamaica
11429,Queens,Southeast Queens,,,11433,Queens,Jamaica
11432,Queens,Jamaica,,,11434,Queens,Jamaica
11433,Queens,Jamaica,,,11435,Queens,Jamaica
11434,Queens,Jamaica,,,11436,Queens,Jamaica
11435,Queens,Jamaica,,,11691,Queens,Rockaways
11436,Queens,Jamaica,,,11692,Queens,Rockaways
11691,Queens,Rockaways,,,11693,Queens,Rockaways
11692,Queens,Rockaways,,,11694,Queens,Rockaways
11693,Queens,Rockaways,,,11697,Queens,Rockaways
11694,Queens,Rockaways,,,,,
11697,Queens,Rockaways,,,,,
